{
  "norad_id": 63123,
  "name": "STARLINK-32948",
  "history": [
    {
      "epoch": "2026-03-28T19:48:22.695552Z",
      "apogee_km": 483.8765817953363,
      "perigee_km": 482.0642888773664,
      "latitude_deg": 3.0650802673970875e-05,
      "longitude_deg": 141.35521597393165,
      "height_km": 482.62899464056727,
      "semi_major_axis_km": 6861.107435336351,
      "eccentricity": 0.00013207,
      "inclination_deg": 43.0012,
      "raan_deg": 264.6899,
      "arg_perigee_deg": 277.4959,
      "mean_anomaly_deg": 82.5743,
      "mean_motion_rev_day": 15.2760627
    }
  ]
}