{"fetched_at":"2026-03-29T16:36:15Z","count":15609,"tles":[{"name":"STARLINK-32948","line1":"1 63123U 25039V   26087.82526268  .00023288  00000+0  85244-3 0  9994","line2":"2 63123  43.0012 264.6899 0001320 277.4959  82.5743 15.27606270 60999","category":"Starlink"}]}